[{"OBJECT_NAME":"SPAWAR-CAL-R","OBJECT_ID":"2018-099U","EPOCH":"2026-03-08T15:37:40.202400","MEAN_MOTION":15.05212097,"ECCENTRICITY":0.00197014,"INCLINATION":97.4524,"RA_OF_ASC_NODE":111.5817,"ARG_OF_PERICENTER":348.9052,"MEAN_ANOMALY":11.1737,"EPHEMERIS_TYPE":0,"CLASSIFICATION_TYPE":"U","NORAD_CAT_ID":43776,"ELEMENT_SET_NO":999,"REV_AT_EPOCH":39687,"BSTAR":0.00025335573,"MEAN_MOTION_DOT":3.57e-5,"MEAN_MOTION_DDOT":0},{"OBJECT_NAME":"STARLINK-35191","OBJECT_ID":"2025-207C","EPOCH":"2026-03-09T17:08:42.540864","MEAN_MOTION":15.05647376,"ECCENTRICITY":0.00011635,"INCLINATION":97.6024,"RA_OF_ASC_NODE":138.6645,"ARG_OF_PERICENTER":130.3076,"MEAN_ANOMALY":229.8252,"EPHEMERIS_TYPE":0,"CLASSIFICATION_TYPE":"U","NORAD_CAT_ID":65594,"ELEMENT_SET_NO":999,"REV_AT_EPOCH":2809,"BSTAR":0.00036929125,"MEAN_MOTION_DOT":5.271e-5,"MEAN_MOTION_DDOT":0}]
