SPAWAR-CAL-R            
1 43776U 18099U   26067.65115975  .00003570  00000+0  25336-3 0  9990
2 43776  97.4524 111.5817 0019701 348.9052  11.1737 15.05212097396878
STARLINK-35191          
1 65594U 25207C   26068.71438126  .00005271  00000+0  36929-3 0  9995
2 65594  97.6024 138.6645 0001164 130.3076 229.8252 15.05647376 28097
